AEROCUBE 12A            
1 43556U 18046C   21017.58309819  .00002800  00000-0  10463-3 0  9993
2 43556  51.6403 156.0596 0007627 345.4109  14.6651 15.30822517140163
AEROCUBE 12B            
1 43557U 18046D   21017.56093212  .00001169  00000-0  51399-4 0  9990
2 43557  51.6414 157.3897 0007769 345.1739  14.9013 15.30377121140090
SURFSAT                 
1 43614U 18070B   21017.54067520  .00003013  00000-0  73832-4 0  9998
2 43614  93.0247 243.3203 0012477 221.7247 138.3057 15.40736214131429
CP7 (DAVE)              
1 43615U 18070C   21017.79211616  .00002816  00000-0  69536-4 0  9999
2 43615  93.0250 243.3987 0012714 220.3703 139.6609 15.40504190131455
ELFIN-B                 
1 43616U 18070D   21017.53891409  .00003997  00000-0  91989-4 0  9994
2 43616  93.0207 243.3369 0012708 221.5110 138.5182 15.42598377131490
ELFIN-A                 
1 43617U 18070E   21017.21313678  .00004345  00000-0  98917-4 0  9993
2 43617  93.0262 243.9040 0012133 218.7465 141.2923 15.42929351131457
CUBEBEL-1 (BSUSAT-1)    
1 43666U 18083E   21017.73539574  .00001384  00000-0  69648-4 0  9992
2 43666  97.4708  47.9210 0013834 341.0051 129.8824 15.18824802123131
CICERO 10               
1 43690U 18088A   21017.52260168  .00001290  00000-0  56728-4 0  9992
2 43690  85.0389 297.2205 0012483 241.0646 118.9344 15.20770797121284
IRVINE01                
1 43693U 18088D   21017.82366902  .00002944  00000-0  11854-3 0  9998
2 43693  85.0353 294.9804 0015154 215.7672 144.2558 15.24299760121483
PROXIMA I               
1 43694U 18088E   21017.26945740  .00001117  00000-0  46292-4 0  9996
2 43694  85.0330 295.3788 0017400 211.2115 148.8095 15.22505330121379
PROXIMA II              
1 43696U 18088G   21017.26757441  .00001120  00000-0  46423-4 0  9997
2 43696  85.0330 295.3863 0017441 211.2052 148.8156 15.22504535121363
FACSAT-1                
1 43721U 18096C   21017.76263340  .00001560  00000-0  59408-4 0  9995
2 43721  97.4015  96.0294 0018730  86.0376  29.6215 15.28106056119105
CENTAURI-2              
1 43722U 18096D   21017.48136648  .00002260  00000-0  82773-4 0  9994
2 43722  97.4026  96.2769 0018573  86.5117 273.8247 15.28924696119083
INNOSAT-2               
1 43738U 18096V   21017.73386572  .00003194  00000-0  10523-3 0  9992
2 43738  97.4063  99.4712 0023919  88.8401  40.1895 15.31956432119312
SIRION PATHFINDER-2     
1 43759U 18099B   21017.64364819  .00000185  00000-0  21869-4 0  9991
2 43759  97.6842  91.3935 0014248 181.1414 178.9776 14.95409795115943
CORVUS BC4              
1 43767U 18099K   21017.86552408  .00000317  00000-0  34293-4 0  9999
2 43767  97.6812  90.7744 0011327 185.5567 174.5528 14.94842696115938
MOVE-II                 
1 43780U 18099Y   21017.49620730  .00000483  00000-0  48509-4 0  9996
2 43780  97.6853  91.2725 0013172 193.1793 166.9085 14.95687653115900
SPACEBEE-7              
1 43816U 18099BL  21017.46335604  .00000450  00000-0  45270-4 0  9992
2 43816  97.6861  91.7577 0013602 178.0421 182.0856 14.95927085115481
SPACEBEE-5              
1 43817U 18099BM  21017.44413928  .00000590  00000-0  56420-4 0  9991
2 43817  97.6941  92.5954 0013256 177.7757 182.3526 14.96865799115517
SPACEBEE-6              
1 43818U 18099BN  21017.46082764  .00000536  00000-0  52551-4 0  9995
2 43818  97.6883  92.0190 0013563 178.0494 182.0783 14.96213327115643
SHIELDS 1               
1 43850U 18104B   21017.54359300  .00000623  00000-0  25687-4 0  9997
2 43850  85.0278  33.7779 0015147  12.6427 347.5191 15.21653883116020
STF-1                   
1 43852U 18104D   21017.55171206  .00001278  00000-0  54253-4 0  9995
2 43852  85.0318  34.4233 0015302  26.8813 333.3218 15.21893255116009
ZACUBE-2                
1 43907U 18111AH  21017.80929590  .00000661  00000-0  29179-4 0  9993
2 43907  97.2485 276.8820 0022955 104.4880 341.4621 15.24914247114670
LUME 1                  
1 43908U 18111AJ  21017.44115015  .00001206  00000-0  49834-4 0  9999
2 43908  97.2491 276.8819 0022470 104.7690 255.6040 15.25669562114646
AOBA VELOX-IV           
1 43940U 19003J   21017.55323830  .00002366  00000-0  93888-4 0  9990
2 43940  97.2009  67.2526 0023132 180.8613 179.2590 15.26072287111281
CATSAT-2                
1 44029U 98067PV  21017.49968775  .00065372  00000-0  33485-3 0  9994
2 44029  51.6389 302.6212 0004241 151.1470 208.9767 15.80654227112169
DELPHINI                
1 44030U 98067PW  21017.80620855  .00088479  00000-0  35338-3 0  9997
2 44030  51.6288 296.1203 0005602 147.6101 212.5248 15.85809571112242
UNITE                   
1 44031U 98067PX  21017.11648774  .00017247  00000-0  15623-3 0  9992
2 44031  51.6381 321.0768 0003474 131.2455 228.8841 15.68163255111855
CATSAT-1                
1 44033U 98067PZ  21017.49976108  .00065830  00000-0  33697-3 0  9992
2 44033  51.6389 302.6317 0003941 151.2351 208.8869 15.80667645112075
RAAVANA-1               
1 44329U 98067QE  21017.25148758  .00018099  00000-0  18342-3 0  9991
2 44329  51.6383 337.8271 0006601  83.6771 276.4976 15.65302490 90393
UGUISU                  
1 44330U 98067QF  21017.28069012  .00018536  00000-0  18916-3 0  9994
2 44330  51.6362 337.9662 0006571  83.3774 276.7969 15.65106948 90376
NEPALISAT-1             
1 44331U 98067QG  21017.88115692  .00020309  00000-0  20499-3 0  9997
2 44331  51.6358 334.4777 0006600  88.2474 271.9277 15.65314721 90486
SPOOQY-1                
1 44332U 98067QH  21017.26926624  .00017332  00000-0  17824-3 0  9995
2 44332  51.6368 337.9104 0005840  87.5853 272.5811 15.64972268 90349
SPACEBEE-9              
1 44370U 19037F   21017.21200103  .00015160  00000-0  27726-3 0  9998
2 44370  45.0049 356.6486 0011622  25.5663 334.5802 15.49224629 87676
SPACEBEE-8              
1 44371U 19037G   21017.80621954  .00049563  00000-0  55095-3 0  9999
2 44371  45.0041 334.8690 0009645  87.6678 272.5322 15.62130162 87964
IOD-1 GEMS              
1 44385U 98067QK  21017.35096644  .00058068  00000-0  36513-3 0  9990
2 44385  51.6365 327.9959 0005065  90.2618 269.8963 15.76123859 88004
MOVE-IIB                
1 44398U 19038N   21017.62261265  .00001426  00000-0  83813-4 0  9990
2 44398  97.5633 342.5547 0026256 108.3678 252.0423 15.13041876 84957
SONATE                  
1 44400U 19038Q   21017.59945444  .00000575  00000-0  36825-4 0  9993
2 44400  97.5683 342.5013 0026460 107.2522 253.1606 15.12272641 84935
LUCKY-7                 
1 44406U 19038W   21017.44161014  .00000763  00000-0  47180-4 0  9991
2 44406  97.5697 342.5262 0025958 107.5818 252.8252 15.12605961 84910
BEESAT 9                
1 44412U 19038AC  21017.42174188  .00000961  00000-0  58128-4 0  9996
2 44412  97.5684 342.4996 0023852 112.6581 247.7176 15.12815909 84611
JAISAT-1                
1 44419U 19038F   21017.43978344  .00000999  00000-0  59554-4 0  9995
2 44419  97.5687 342.9457 0022768 111.2444 249.1222 15.13299772 84956
SWIATOWID               
1 44426U 98067QL  21017.86096285  .00087674  00000-0  43938-3 0  9997
2 44426  51.6404 321.5008 0005868 101.5754 293.8923 15.81003616 88149
KRAKSAT                 
1 44427U 98067QM  21017.78419385  .00011582  00000-0  14099-3 0  9990
2 44427  51.6438 342.8093 0004334  51.3924  20.0997 15.61022269 87890
VCC A                   
1 44428U 98067QN  21017.28788195  .00017326  00000-0  18341-3 0  9990
2 44428  51.6393 340.3792 0003969  67.5809 292.5606 15.64244605 87889
ENTRYSAT                
1 44429U 98067QP  21017.15675192  .00027517  00000-0  25519-3 0  9997
2 44429  51.6355 337.1757 0004002  69.6198 290.5228 15.67247417 87915
VCC C                   
1 44430U 98067QQ  21017.84685316  .00043307  00000-0  32861-3 0  9997
2 44430  51.6353 329.0255 0004337  87.3549 272.7945 15.71881525 86901
VCC B                   
1 44431U 98067QR  21017.14762329  .00019689  00000-0  20616-3 0  9992
2 44431  51.6370 340.8920 0004073  66.8076 293.3348 15.64420805 87803
DUCHIFAT-3              
1 44854U 19089C   21017.75979035  .00000421  00000-0  40265-4 0  9996
2 44854  36.9663 271.6697 0008934 349.0583  10.9967 14.99295972 60470
EYESAT-NANO             
1 44877U 19092E   21017.50726877  .00001308  00000-0  68605-4 0  9995
2 44877  97.4547 203.3724 0013400   1.4440 358.6830 15.17449116 60042
ORBITAL FACTORY 2 (OF-2)
1 45113U 19071C   21017.44773431  .00001562  00000-0  57090-4 0  9995
2 45113  51.6432  49.0297 0012933 107.0243 253.2158 15.34599162 53978
M2 PATHFINDER           
1 45727U 20037E   21017.45396104  .00000534  00000-0  59081-4 0  9999
2 45727  97.7055 198.6228 0011838 313.4803  46.5476 14.91300817 29916
NETSAT-4                
1 46504U 20068U   21017.54339316  .00000139  00000-0  15226-4 0  9993
2 46504  97.6817 315.8009 0007559 252.8378 107.2034 15.01959072 16582
NETSAT-3                
1 46505U 20068V   21017.41302151  .00000232  00000-0  22330-4 0  9995
2 46505  97.6816 315.6587 0007355 253.6940 106.3472 15.01923899 16572
NETSAT-1                
1 46506U 20068W   21017.54933573  .00000339  00000-0  30578-4 0  9999
2 46506  97.6808 315.7806 0006943 250.7941 109.2544 15.01889566 16596
NETSAT-2                
1 46507U 20068X   21017.55058617  .00000327  00000-0  29645-4 0  9998
2 46507  97.6810 315.7820 0007137 251.2037 108.8422 15.01868942 16544
SPOC                    
1 46921U 98067RR  21017.81146789  .00005637  00000-0  10120-3 0  9995
2 46921  51.6440   5.5960 0001234 220.6762 139.4136 15.51515903 11446
BOBCAT-1                
1 46922U 98067RS  21017.41437034  .00007558  00000-0  13087-3 0  9997
2 46922  51.6443   7.4460 0000736 219.1390 140.9547 15.51984020 11355
NEUTRON-1               
1 46923U 98067RT  21017.42932013  .00005702  00000-0  10264-3 0  9999
2 46923  51.6440   7.5429 0001042 245.7429 114.3452 15.51411097 11425
1998-067RU              
1 46924U 98067RU  21017.65522620  .00012392  00000-0  20359-3 0  9993
2 46924  51.6433   6.0518 0001057 343.6130  16.4826 15.52801233 11416
